{"type": "FeatureCollection", "features": [ {"type": "Feature", "properties": {"norad_id": 66855, "name": "STARLINK-36090", "group": "last-30-days", "lat": -2.8627324678203703, "lon": -68.20855608056603, "alt_km": 315.0279008059588, "timestamp": "2025-12-14T22:38:39.518830+00:00", "meta": {"OBJECT_NAME": "STARLINK-36090", "OBJECT_ID": "2025-281H", "EPOCH": "2025-12-14T06:00:02.999808", "MEAN_MOTION": 15.87306515, "ECCENTRICITY": 0.00015733, "INCLINATION": 43.0006, "RA_OF_ASC_NODE": 112.9945, "ARG_OF_PERICENTER": 267.2639, "MEAN_ANOMALY": 271.5316, "EPHEMERIS_TYPE": 0, "CLASSIFICATION_TYPE": "U", "NORAD_CAT_ID": 66855, "ELEMENT_SET_NO": 999, "REV_AT_EPOCH": 152, "BSTAR": -0.0050356243, "MEAN_MOTION_DOT": -0.01217638, "MEAN_MOTION_DDOT": 0}, "tle": {"line1": "1 66855U 25281H   25348.25003472 -.01217638  00000+0 -50356-2 0  9993", "line2": "2 66855  43.0006 112.9945 0001573 267.2639 271.5316 15.87306515  1521"}}, "geometry": {"type": "Point", "coordinates": [-68.20855608056603, -2.8627324678203703]}}, {"type": "Feature", "properties": {"norad_id": 66856, "name": "STARLINK-36072", "group": "last-30-days", "lat": -4.866474995695101, "lon": -66.04993589169976, "alt_km": 315.3139056457294, "timestamp": "2025-12-14T22:38:39.518840+00:00", "meta": {"OBJECT_NAME": "STARLINK-36072", "OBJECT_ID": "2025-281J", "EPOCH": "2025-12-14T06:00:02.999808", "MEAN_MOTION": 15.87302544, "ECCENTRICITY": 0.00014029, "INCLINATION": 43.0005, "RA_OF_ASC_NODE": 112.9869, "ARG_OF_PERICENTER": 269.8977, "MEAN_ANOMALY": 271.8619, "EPHEMERIS_TYPE": 0, "CLASSIFICATION_TYPE": "U", "NORAD_CAT_ID": 66856, "ELEMENT_SET_NO": 999, "REV_AT_EPOCH": 164, "BSTAR": -0.0050568728, "MEAN_MOTION_DOT": -0.01221889, "MEAN_MOTION_DDOT": 0}, "tle": {"line1": "1 66856U 25281J   25348.25003472 -.01221889  00000+0 -50569-2 0  9993", "line2": "2 66856  43.0005 112.9869 0001402 269.8977 271.8619 15.87302544  1640"}}, "geometry": {"type": "Point", "coordinates": [-66.04993589169976, -4.866474995695101]}}, {"type": "Feature", "properties": {"norad_id": 66857, "name": "STARLINK-36083", "group": "last-30-days", "lat": -6.561559165758221, "lon": -64.20785506588693, "alt_km": 315.5430441626222, "timestamp": "2025-12-14T22:38:39.518849+00:00", "meta": {"OBJECT_NAME": "STARLINK-36083", "OBJECT_ID": "2025-281K", "EPOCH": "2025-12-14T06:00:02.999808", "MEAN_MOTION": 15.87311585, "ECCENTRICITY": 0.00014316, "INCLINATION": 43.0004, "RA_OF_ASC_NODE": 112.9808, "ARG_OF_PERICENTER": 272.9974, "MEAN_ANOMALY": 271.2532, "EPHEMERIS_TYPE": 0, "CLASSIFICATION_TYPE": "U", "NORAD_CAT_ID": 66857, "ELEMENT_SET_NO": 999, "REV_AT_EPOCH": 164, "BSTAR": -0.0050815917, "MEAN_MOTION_DOT": -0.01227711, "MEAN_MOTION_DDOT": 0}, "tle": {"line1": "1 66857U 25281K   25348.25003472 -.01227711  00000+0 -50816-2 0  9999", "line2": "2 66857  43.0004 112.9808 0001431 272.9974 271.2532 15.87311585  1640"}}, "geometry": {"type": "Point", "coordinates": [-64.20785506588693, -6.561559165758221]}}, {"type": "Feature", "properties": {"norad_id": 66858, "name": "STARLINK-35118", "group": "last-30-days", "lat": -8.329066098085226, "lon": -62.26644369082187, "alt_km": 315.56622952513317, "timestamp": "2025-12-14T22:38:39.518859+00:00", "meta": {"OBJECT_NAME": "STARLINK-35118", "OBJECT_ID": "2025-281L", "EPOCH": "2025-12-14T06:00:02.999808", "MEAN_MOTION": 15.87314768, "ECCENTRICITY": 0.0001545, "INCLINATION": 43.0007, "RA_OF_ASC_NODE": 112.9736, "ARG_OF_PERICENTER": 269.315, "MEAN_ANOMALY": 277.5464, "EPHEMERIS_TYPE": 0, "CLASSIFICATION_TYPE": "U", "NORAD_CAT_ID": 66858, "ELEMENT_SET_NO": 999, "REV_AT_EPOCH": 143, "BSTAR": -0.0050772558, "MEAN_MOTION_DOT": -0.01227023, "MEAN_MOTION_DDOT": 0}, "tle": {"line1": "1 66858U 25281L   25348.25003472 -.01227023  00000+0 -50773-2 0  9998", "line2": "2 66858  43.0007 112.9736 0001545 269.3150 277.5464 15.87314768  1432"}}, "geometry": {"type": "Point", "coordinates": [-62.26644369082187, -8.329066098085226]}}, {"type": "Feature", "properties": {"norad_id": 66859, "name": "STARLINK-35646", "group": "last-30-days", "lat": -10.257004988206686, "lon": -60.11503755785332, "alt_km": 315.7438162350363, "timestamp": "2025-12-14T22:38:39.518871+00:00", "meta": {"OBJECT_NAME": "STARLINK-35646", "OBJECT_ID": "2025-281M", "EPOCH": "2025-12-14T06:00:02.999808", "MEAN_MOTION": 15.87315582, "ECCENTRICITY": 0.00015403, "INCLINATION": 43.0006, "RA_OF_ASC_NODE": 112.9667, "ARG_OF_PERICENTER": 269.3716, "MEAN_ANOMALY": 280.3754, "EPHEMERIS_TYPE": 0, "CLASSIFICATION_TYPE": "U", "NORAD_CAT_ID": 66859, "ELEMENT_SET_NO": 999, "REV_AT_EPOCH": 164, "BSTAR": -0.0051092971, "MEAN_MOTION_DOT": -0.01233945, "MEAN_MOTION_DDOT": 0}, "tle": {"line1": "1 66859U 25281M   25348.25003472 -.01233945  00000+0 -51093-2 0  9995", "line2": "2 66859  43.0006 112.9667 0001540 269.3716 280.3754 15.87315582  1640"}}, "geometry": {"type": "Point", "coordinates": [-60.11503755785332, -10.257004988206686]}}, {"type": "Feature", "properties": {"norad_id": 66860, "name": "STARLINK-35987", "group": "last-30-days", "lat": -19.869175899218387, "lon": -48.531219596556376, "alt_km": 316.3029551175787, "timestamp": "2025-12-14T22:38:39.518885+00:00", "meta": {"OBJECT_NAME": "STARLINK-35987", "OBJECT_ID": "2025-281N", "EPOCH": "2025-12-14T06:00:02.999808", "MEAN_MOTION": 15.87322925, "ECCENTRICITY": 0.0001701, "INCLINATION": 43.0006, "RA_OF_ASC_NODE": 112.929, "ARG_OF_PERICENTER": 263.0245, "MEAN_ANOMALY": 301.5619, "EPHEMERIS_TYPE": 0, "CLASSIFICATION_TYPE": "U", "NORAD_CAT_ID": 66860, "ELEMENT_SET_NO": 999, "REV_AT_EPOCH": 164, "BSTAR": -0.0053084276, "MEAN_MOTION_DOT": -0.01276997, "MEAN_MOTION_DDOT": 0}, "tle": {"line1": "1 66860U 25281N   25348.25003472 -.01276997  00000+0 -53084-2 0  9993", "line2": "2 66860  43.0006 112.9290 0001701 263.0245 301.5619 15.87322925  1646"}}, "geometry": {"type": "Point", "coordinates": [-48.531219596556376, -19.869175899218387]}}, {"type": "Feature", "properties": {"norad_id": 66861, "name": "STARLINK-35991", "group": "last-30-days", "lat": -14.131789010803896, "lon": -55.65185808797903, "alt_km": 315.9370763369343, "timestamp": "2025-12-14T22:38:39.518894+00:00", "meta": {"OBJECT_NAME": "STARLINK-35991", "OBJECT_ID": "2025-281P", "EPOCH": "2025-12-14T06:00:02.999808", "MEAN_MOTION": 15.87320617, "ECCENTRICITY": 0.00016702, "INCLINATION": 43.0007, "RA_OF_ASC_NODE": 112.9519, "ARG_OF_PERICENTER": 264.5157, "MEAN_ANOMALY": 291.1129, "EPHEMERIS_TYPE": 0, "CLASSIFICATION_TYPE": "U", "NORAD_CAT_ID": 66861, "ELEMENT_SET_NO": 999, "REV_AT_EPOCH": 164, "BSTAR": -0.0052136924, "MEAN_MOTION_DOT": -0.01256656, "MEAN_MOTION_DDOT": 0}, "tle": {"line1": "1 66861U 25281P   25348.25003472 -.01256656  00000+0 -52137-2 0  9992", "line2": "2 66861  43.0007 112.9519 0001670 264.5157 291.1129 15.87320617  1641"}}, "geometry": {"type": "Point", "coordinates": [-55.65185808797903, -14.131789010803896]}}, {"type": "Feature", "properties": {"norad_id": 66862, "name": "STARLINK-35974", "group": "last-30-days", "lat": -12.297457755640176, "lon": -57.79143691746897, "alt_km": 315.88498024540513, "timestamp": "2025-12-14T22:38:39.518904+00:00", "meta": {"OBJECT_NAME": "STARLINK-35974", "OBJECT_ID": "2025-281Q", "EPOCH": "2025-12-14T06:00:02.999808", "MEAN_MOTION": 15.87314835, "ECCENTRICITY": 0.00015627, "INCLINATION": 43.0006, "RA_OF_ASC_NODE": 112.959, "ARG_OF_PERICENTER": 267.6121, "MEAN_ANOMALY": 285.2228, "EPHEMERIS_TYPE": 0, "CLASSIFICATION_TYPE": "U", "NORAD_CAT_ID": 66862, "ELEMENT_SET_NO": 999, "REV_AT_EPOCH": 154, "BSTAR": -0.0051565512, "MEAN_MOTION_DOT": -0.01244046, "MEAN_MOTION_DDOT": 0}, "tle": {"line1": "1 66862U 25281Q   25348.25003472 -.01244046  00000+0 -51566-2 0  9998", "line2": "2 66862  43.0006 112.9590 0001562 267.6121 285.2228 15.87314835  1543"}}, "geometry": {"type": "Point", "coordinates": [-57.79143691746897, -12.297457755640176]}}, {"type": "Feature", "properties": {"norad_id": 66863, "name": "STARLINK-36134", "group": "last-30-days", "lat": -16.41737727040991, "lon": -52.903411058094136, "alt_km": 316.2558604801061, "timestamp": "2025-12-14T22:38:39.518914+00:00", "meta": {"OBJECT_NAME": "STARLINK-36134", "OBJECT_ID": "2025-281R", "EPOCH": "2025-12-14T06:00:02.999808", "MEAN_MOTION": 15.87306052, "ECCENTRICITY": 0.00015843, "INCLINATION": 43.001, "RA_OF_ASC_NODE": 112.9428, "ARG_OF_PERICENTER": 267.7621, "MEAN_ANOMALY": 291.4228, "EPHEMERIS_TYPE": 0, "CLASSIFICATION_TYPE": "U", "NORAD_CAT_ID": 66863, "ELEMENT_SET_NO": 999, "REV_AT_EPOCH": 164, "BSTAR": -0.0052445419, "MEAN_MOTION_DOT": -0.01262368, "MEAN_MOTION_DDOT": 0}, "tle": {"line1": "1 66863U 25281R   25348.25003472 -.01262368  00000+0 -52445-2 0  9993", "line2": "2 66863  43.0010 112.9428 0001584 267.7621 291.4228 15.87306052  1641"}}, "geometry": {"type": "Point", "coordinates": [-52.903411058094136, -16.41737727040991]}}, {"type": "Feature", "properties": {"norad_id": 66864, "name": "STARLINK-36070", "group": "last-30-days", "lat": -18.108130176563947, "lon": -50.79945530107223, "alt_km": 316.3712118511057, "timestamp": "2025-12-14T22:38:39.518923+00:00", "meta": {"OBJECT_NAME": "STARLINK-36070", "OBJECT_ID": "2025-281S", "EPOCH": "2025-12-14T06:00:02.999808", "MEAN_MOTION": 15.87315119, "ECCENTRICITY": 0.00013951, "INCLINATION": 43.0009, "RA_OF_ASC_NODE": 112.9359, "ARG_OF_PERICENTER": 266.4786, "MEAN_ANOMALY": 295.3228, "EPHEMERIS_TYPE": 0, "CLASSIFICATION_TYPE": "U", "NORAD_CAT_ID": 66864, "ELEMENT_SET_NO": 999, "REV_AT_EPOCH": 167, "BSTAR": -0.0052636939, "MEAN_MOTION_DOT": -0.01266834, "MEAN_MOTION_DDOT": 0}, "tle": {"line1": "1 66864U 25281S   25348.25003472 -.01266834  00000+0 -52637-2 0  9999", "line2": "2 66864  43.0009 112.9359 0001395 266.4786 295.3228 15.87315119  1671"}}, "geometry": {"type": "Point", "coordinates": [-50.79945530107223, -18.108130176563947]}}]}